ONEWEB-0326             
1 49195U 21083K   24021.87065710  .00000032  00000+0  48570-4 0  9997
2 49195  87.9242 150.0378 0000970 113.5033 246.6201 13.18685793114376
ONEWEB-0327             
1 49196U 21083L   24022.37570818  .00000093  00000+0  20261-3 0  9997
2 49196  87.9243 149.9492 0001204 114.6762 245.4495 13.18688733115745
ONEWEB-0328             
1 49197U 21083M   24022.34113254 -.00000251  00000+0 -72289-3 0  9997
2 49197  87.9006 134.7721 0001463 102.3924 257.7369 13.13472300117082
ONEWEB-0331             
1 49198U 21083N   24021.86432462 -.00000167  00000+0 -45707-3 0  9990
2 49198  87.9242 150.0314 0001340 100.2812 259.8471 13.18685777114387
ONEWEB-0333             
1 49199U 21083P   24021.87929844 -.00000342  00000+0 -97089-3 0  9992
2 49199  87.9018 134.8737 0001813 110.1155 250.0169 13.13470292115740
ONEWEB-0334             
1 49200U 21083Q   24021.69581617  .00000000  00000+0 -32267-4 0  9995
2 49200  87.9169  89.1566 0002583 113.4618 246.6787 13.20771494120960
ONEWEB-0335             
1 49201U 21083R   24021.87454462 -.00000322  00000+0 -91638-3 0  9997
2 49201  87.9019 134.8630 0001595 102.0122 258.1186 13.13469826115758
ONEWEB-0336             
1 49202U 21083S   24021.84439600  .00000244  00000+0  63337-3 0  9998
2 49202  87.9019 134.8678 0001701 111.6818 248.4492 13.13469421115740
ONEWEB-0337             
1 49203U 21083T   24022.38702019  .00000217  00000+0  56031-3 0  9999
2 49203  87.9018 134.7580 0001550 101.7724 258.3579 13.13470997117118
ONEWEB-0338             
1 49204U 21083U   24022.23242688 -.00000111  00000+0 -30563-3 0  9992
2 49204  87.9174  89.0244 0002308 100.0739 260.0654 13.20770372122355
ONEWEB-0339             
1 49205U 21083V   24021.86502236 -.00000174  00000+0 -51184-3 0  9990
2 49205  87.9017 134.8594 0001605 100.5870 259.5440 13.13469802117028
ONEWEB-0340             
1 49206U 21083W   24022.38123400  .00000072  00000+0  15021-3 0  9996
2 49206  87.9243 149.9221 0001377 102.2304 257.8983 13.18686206115701
ONEWEB-0341             
1 49207U 21083X   24021.85799539 -.00000143  00000+0 -39581-3 0  9998
2 49207  87.9250 150.0416 0001724  77.3258 282.8067 13.18685094114361
ONEWEB-0342             
1 49208U 21083Y   24021.70844500 -.00000117  00000+0 -31926-3 0  9998
2 49208  87.9166  89.1517 0002068 102.0191 258.1174 13.20770879120952
ONEWEB-0343             
1 49209U 21083Z   24021.77739174 -.00000089  00000+0 -25771-3 0  9995
2 49209  87.9236 150.0738 0001879  83.0602 277.0744 13.18686483114408
ONEWEB-0344             
1 49210U 21083AA  24021.83169060  .00000303  00000+0  79534-3 0  9998
2 49210  87.9018 134.8796 0001321 102.8760 257.2516 13.13471753115729
ONEWEB-0345             
1 49211U 21083AB  24021.84915270  .00000122  00000+0  29953-3 0  9991
2 49211  87.9018 134.8556 0001262  89.9385 270.1889 13.13468153115734
ONEWEB-0346             
1 49212U 21083AC  24021.86273660  .00000000  00000+0 -33737-4 0  9996
2 49212  87.9243 150.0492 0001107 111.0986 249.0264 13.18686143114351
ONEWEB-0348             
1 49213U 21083AD  24022.22927529  .00000003  00000+0 -25225-4 0  9994
2 49213  87.9168  89.0070 0001180  83.1967 276.9300 13.20771945122357
ONEWEB-0350             
1 49214U 21083AE  24021.85867081 -.00000130  00000+0 -38955-3 0  9994
2 49214  87.9019 134.8448 0001340  90.3297 269.7986 13.13468604117064
ONEWEB-0351             
1 49215U 21083AF  24022.14720128 -.00000048  00000+0 -14980-3 0  9998
2 49215  87.9171  89.0281 0002223  96.4301 263.7086 13.20770478122316
ONEWEB-0352             
1 49216U 21083AG  24021.83965057  .00000727  00000+0  19569-2 0  9995
2 49216  87.9017 134.8759 0001866 106.5750 253.5584 13.13470480115851
ONEWEB-0354             
1 49217U 21083AH  24021.71790888  .00000040  00000+0  67413-4 0  9992
2 49217  87.9176  89.0932 0001815  86.5308 273.6033 13.20769882120989
ONEWEB-0355             
1 49218U 21083AJ  24021.86977555 -.00000285  00000+0 -81400-3 0  9991
2 49218  87.9018 134.8688 0001717  99.7516 260.3807 13.13468704115730
ONEWEB-0357             
1 49219U 21083AK  24021.71475174 -.00000007  00000+0 -48044-4 0  9996
2 49219  87.9173  89.1172 0001792 100.1276 260.0060 13.20770108120989
ONEWEB-0332             
1 49279U 21090A   24022.18951441 -.00000021  00000+0 -90763-4 0  9999
2 49279  87.8970 104.2937 0002118 110.3285 249.8073 13.14504034112361
ONEWEB-0347             
1 49280U 21090B   24022.23558627  .00000123  00000+0  27051-3 0  9996
2 49280  87.9174  89.0084 0002201 109.8051 250.3320 13.20770078115286
ONEWEB-0349             
1 49281U 21090C   24022.11563726  .00000068  00000+0  13409-3 0  9990
2 49281  87.9176  89.0294 0001614  94.0245 266.1073 13.20771679115344
ONEWEB-0353             
1 49282U 21090D   24021.72486899 -.00000119  00000+0 -35428-3 0  9996
2 49282  87.8972 104.3705 0002049 108.4669 251.6683 13.14501256112303
ONEWEB-0356             
1 49283U 21090E   24022.18980888 -.00000070  00000+0 -20357-3 0  9996
2 49283  87.9175  89.0107 0001313 133.0903 227.0340 13.20770516115352
ONEWEB-0358             
1 49284U 21090F   24022.21979668  .00000049  00000+0  87642-4 0  9990
2 49284  87.9176  88.9902 0001486 100.1856 259.9445 13.20771298116087
ONEWEB-0359             
1 49285U 21090G   24022.14088803 -.00000118  00000+0 -32094-3 0  9994
2 49285  87.9174  89.0268 0001714  84.9979 275.1350 13.20770765116041
ONEWEB-0360             
1 49286U 21090H   24022.13141752  .00000135  00000+0  29996-3 0  9991
2 49286  87.9173  89.0324 0001839  97.2735 262.8607 13.20772216115364
ONEWEB-0361             
1 49287U 21090J   24022.18823662 -.00000021  00000+0 -84540-4 0  9997
2 49287  87.9174  89.0156 0001739 104.8701 255.2624 13.20770889115365
ONEWEB-0362             
1 49288U 21090K   24021.82529352 -.00000072  00000+0 -21204-3 0  9990
2 49288  87.9206 119.6354 0002028  97.9151 262.2212 13.19724779111198
ONEWEB-0363             
1 49289U 21090L   24021.74947947 -.00000068  00000+0 -19812-3 0  9993
2 49289  87.9175  89.0982 0001429 109.8699 250.2589 13.20770686114484
ONEWEB-0364             
1 49290U 21090M   24022.16613590 -.00000181  00000+0 -47809-3 0  9999
2 49290  87.9176  89.0381 0001998 106.9213 253.2139 13.20770903116490
ONEWEB-0365             
1 49291U 21090N   24022.28966592  .00000096  00000+0  20861-3 0  9998
2 49291  87.9198 119.5333 0001899 103.4486 256.6859 13.19723951112058
ONEWEB-0366             
1 49292U 21090P   24021.72169902 -.00000372  00000+0 -10378-2 0  9997
2 49292  87.8963 104.3790 0001868 108.6541 251.4792 13.14501092112281
ONEWEB-0367             
1 49293U 21090Q   24021.74789933 -.00000124  00000+0 -33600-3 0  9991
2 49293  87.9175  89.0929 0002014 107.7080 252.4274 13.20770547114001
ONEWEB-0368             
1 49294U 21090R   24022.17560806 -.00000102  00000+0 -28221-3 0  9995
2 49294  87.9176  89.0362 0002117 128.0052 232.1272 13.20771036116518
ONEWEB-0369             
1 49295U 21090S   24021.83003028 -.00000055  00000+0 -17017-3 0  9994
2 49295  87.9207 119.6173 0001921 108.6014 251.5327 13.19724177110699
ONEWEB-0370             
1 49296U 21090T   24022.13615585 -.00000040  00000+0 -13046-3 0  9998
2 49296  87.9175  89.0196 0001790 101.6298 258.5036 13.20770566115391
ONEWEB-0371             
1 49297U 21090U   24021.76211100  .00000012  00000+0 -13690-5 0  9997
2 49297  87.9208 119.6210 0001907 103.8320 256.3025 13.19724573110727
ONEWEB-0372             
1 49298U 21090V   24022.20072821 -.00000001  00000+0 -34932-4 0  9993
2 49298  87.9173  89.0142 0002045 103.5023 256.6338 13.20770852115373
ONEWEB-0373             
1 49299U 21090W   24022.15193719 -.00000052  00000+0 -16106-3 0  9996
2 49299  87.9175  89.0421 0001824 113.6275 246.5050 13.20770502116553
ONEWEB-0374             
1 49300U 21090X   24022.16572209 -.00000244  00000+0 -69351-3 0  9998
2 49300  87.8973 104.2774 0001803 109.6738 250.4586 13.14502312113637
ONEWEB-0375             
1 49301U 21090Y   24022.21506466  .00000426  00000+0  10155-2 0  9994
2 49301  87.9182  89.0050 0000865 100.1234 259.9997 13.20770973116058
ONEWEB-0376             
1 49302U 21090Z   24021.76053341  .00000038  00000+0  63263-4 0  9992
2 49302  87.9201 119.6391 0002100 106.0041 254.1323 13.19725467110728
ONEWEB-0377             
1 49303U 21090AA  24022.20099927 -.00005582  00000+0 -13763-1 0  9991
2 49303  87.9173  88.9987 0001912  82.6965 277.4385 13.20798132116037
ONEWEB-0378             
1 49304U 21090AB  24022.17640166 -.00000065  00000+0 -19080-3 0  9996
2 49304  87.9176  89.0178 0001814 112.9127 247.2198 13.20770932115330
ONEWEB-0379             
1 49305U 21090AC  24022.16097080 -.00000007  00000+0 -54529-4 0  9991
2 49305  87.8974 104.2804 0001797 107.6955 252.4371 13.14503047113649
ONEWEB-0380             
1 49306U 21090AD  24021.83318801  .00000073  00000+0  15117-3 0  9992
2 49306  87.9206 119.6200 0001680 102.2387 257.8933 13.19724674110703
ONEWEB-0381             
1 49307U 21090AE  24021.89468205  .00000018  00000+0  13346-4 0  9995
2 49307  87.9176  89.0665 0001783 100.2456 259.8878 13.20771251114028
ONEWEB-0382             
1 49308U 21090AF  24022.18507605 -.00000092  00000+0 -25801-3 0  9999
2 49308  87.9174  89.0062 0001544 117.7229 242.4061 13.20770773115362
ONEWEB-0383             
1 49309U 21090AG  24022.15462093  .00000143  00000+0  35072-3 0  9994
2 49309  87.8972 104.2732 0001776 114.2474 245.8841 13.14504600113664
ONEWEB-0384             
1 49310U 21090AH  24022.18193648  .00000066  00000+0  13112-3 0  9991
2 49310  87.9177  89.0157 0001445 119.2521 240.8757 13.20771238115377
ONEWEB-0385             
1 49311U 21090AJ  24022.17718471 -.00000030  00000+0 -10523-3 0  9994
2 49311  87.9176  89.0182 0001463 108.3625 251.7667 13.20769801115351
ONEWEB-0386             
1 49312U 21090AK  24021.74000589  .00000043  00000+0  72651-4 0  9994
2 49312  87.9169  89.1102 0001623 106.7987 253.3325 13.20771187113995
